OBJECT_NAME,OBJECT_ID,EPOCH,MEAN_MOTION,ECCENTRICITY,INCLINATION,RA_OF_ASC_NODE,ARG_OF_PERICENTER,MEAN_ANOMALY,EPHEMERIS_TYPE,CLASSIFICATION_TYPE,NORAD_CAT_ID,ELEMENT_SET_NO,REV_AT_EPOCH,BSTAR,MEAN_MOTION_DOT,MEAN_MOTION_DDOT
PERSEUS-M1,2014-033AF,2026-06-19T18:41:59.624448,14.95637751,.00101324,97.9640,114.9533,291.5045,68.5095,0,U,40039,999,65102,.13258556E-3,.1414E-4,0
POLYITAN-1,2014-033AJ,2026-06-19T14:20:20.047200,15.33326342,.00087612,98.0942,197.0866,134.5443,225.6514,0,U,40042,999,65396,.47013999E-3,.15082E-3,0
TIGRISAT,2014-033AK,2026-06-19T11:22:28.568064,14.85169819,.00505154,97.7834,320.4330,67.8951,292.7617,0,U,40043,999,64596,.18305756E-3,.1548E-4,0
AEROCUBE 6A,2014-033AM,2026-06-19T21:29:39.611040,14.98130756,.00386556,97.7254,337.8158,8.8379,351.3515,0,U,40045,999,64702,.32903714E-3,.3897E-4,0
AEROCUBE 6B,2014-033AN,2026-06-19T21:29:13.176096,14.99591211,.00381142,97.7250,337.6116,0.0090,0.1127,0,U,40046,999,64716,.32657212E-3,.4017E-4,0
CANX-4,2014-034C,2026-06-19T15:37:48.941760,14.81268280,.00129833,98.3119,46.0548,9.3368,350.8082,0,U,40055,999,64489,.91607993E-4,.657E-5,0
CANX-5,2014-034D,2026-06-19T15:35:31.090560,14.81285583,.00129821,98.3120,46.0968,9.5671,350.5785,0,U,40056,999,63570,.92982307E-4,.668E-5,0
UKUBE-1,2014-037F,2026-06-19T22:40:36.544224,15.13591351,.00028071,98.4240,174.5065,127.2512,232.8973,0,U,40074,999,64897,.40346435E-3,.7166E-4,0
BRITE-PL2 (HEWELIUSZ),2014-049B,2026-06-19T18:48:02.960640,14.94601604,.00153715,97.9101,282.8033,100.7431,259.5521,0,U,40119,999,64183,.16137795E-3,.1691E-4,0
AEROCUBE 5C,2015-058B,2026-06-19T15:38:33.023904,14.91462068,.01308587,64.7663,254.9231,62.3153,299.1166,0,U,40965,999,36602,.14972686E-3,.1588E-4,0
AEROCUBE 7,2015-058C,2026-06-19T15:23:07.934784,14.95736995,.01205965,64.7613,237.1299,60.7193,300.5911,0,U,40966,999,36632,.19242733E-3,.2303E-4,0
FOX-1A (AO-85),2015-058D,2026-06-19T18:24:49.502304,14.90978964,.01305696,64.7745,270.9655,55.6095,305.7282,0,U,40967,999,11395,.16075706E-3,.1694E-4,0
SINOD-D 1,2015-058E,2026-06-19T14:50:57.592896,14.95917524,.01192063,64.7746,251.2983,52.1144,309.0679,0,U,40968,999,11702,.19778004E-3,.2377E-4,0
SNAP-3 ALICE,2015-058G,2026-06-19T22:18:49.579200,15.60645805,.00274523,64.7495,94.4475,11.0857,349.0888,0,U,40970,999,11731,.13553976E-2,.11649E-2,0
LMRST-SAT,2015-058H,2026-06-19T17:21:24.571584,14.90598216,.01321987,64.7751,267.4452,57.6406,303.7422,0,U,40971,999,11393,.14752513E-3,.1529E-4,0
SNAP-3 EDDIE,2015-058J,2026-06-19T11:15:50.307264,15.61823790,.002723,64.7421,86.7482,15.2972,344.8991,0,U,40972,999,11938,.13634033E-2,.122718E-2,0
PROPCUBE 3,2015-058K,2026-06-19T14:50:56.303808,14.94267364,.01241724,64.7678,244.9389,58.9505,302.3728,0,U,40973,999,11516,.17311227E-3,.1986E-4,0
BISONSAT,2015-058L,2026-06-19T09:47:03.494976,15.16233657,.00792866,64.7582,166.4651,46.3425,314.4236,0,U,40974,999,11595,.531874E-3,.11E-3,0
SNAP-3 JIMI,2015-058M,2026-06-19T12:27:30.145824,15.02313920,.01063013,64.7632,212.3943,54.4226,306.6741,0,U,40975,999,11457,.24913422E-3,.3541E-4,0
PROPCUBE 1 (FLORA),2015-058N,2026-06-19T16:19:51.782880,14.89230682,.01308696,64.7742,287.5085,59.9684,301.4335,0,U,40976,999,11663,.16026186E-3,.1607E-4,0
SINOD-D 3,2015-058P,2026-06-19T17:13:31.241280,14.94028280,.01194001,64.7726,267.9171,57.1285,304.1252,0,U,40977,999,11513,.20630698E-3,.2359E-4,0
HORYU-4,2016-012D,2026-06-19T22:28:59.273760,15.98312502,.00064003,30.9843,58.8005,289.5711,70.4260,0,U,41340,999,57125,.95407066E-3,.470481E-2,.86037643E-4
RAVAN,2016-067B,2026-06-19T16:22:41.328192,15.54886369,.00040083,97.9880,60.5420,24.2020,335.9420,0,U,41849,999,52808,.65510352E-3,.43817E-3,0
CELTEE 1,2016-067C,2026-06-19T13:51:35.582688,15.19701017,.00010751,98.0668,37.3072,128.9694,231.1635,0,U,41850,999,52624,.20662878E-3,.4334E-4,0
OPTICUBE 04,2016-067D,2026-06-19T15:56:22.995456,15.09668393,.00169534,98.0697,23.0771,107.9100,252.3977,0,U,41851,999,52554,.12127239E-3,.1887E-4,0
AEROCUBE 8D,2016-067E,2026-06-19T14:01:21.992448,15.24424989,.00048385,98.0674,40.9374,117.5198,242.6529,0,U,41852,999,52643,.25539429E-3,.6185E-4,0
AEROCUBE 8C,2016-067F,2026-06-19T14:36:47.023776,15.24674232,.00065037,98.0546,38.1882,62.3132,297.8763,0,U,41853,999,52643,.24098243E-3,.5876E-4,0
CORVUS BC2,2017-042X,2026-06-19T22:02:35.925504,15.06313843,.00145701,97.4077,332.1617,101.9478,258.3384,0,U,42846,999,48747,.20515194E-3,.2962E-4,0
CORVUS BC1,2017-042Y,2026-06-19T21:54:23.561280,15.06481246,.00135098,97.4110,332.9722,81.0513,279.2244,0,U,42847,999,48750,.17444071E-3,.2521E-4,0
MAKERSAT 0,2017-073D,2026-06-19T15:52:54.097536,15.32165805,.01049656,97.4616,53.1997,264.0130,94.9141,0,U,43016,999,46684,.37210648E-3,.13677E-3,0
