PERSEUS-M1              
1 40039U 14033AF  26170.77916232  .00001414  00000+0  13259-3 0  9992
2 40039  97.9640 114.9533 0010132 291.5045  68.5095 14.95637751651027
POLYITAN-1              
1 40042U 14033AJ  26170.59745425  .00015082  00000+0  47014-3 0  9992
2 40042  98.0942 197.0866 0008761 134.5443 225.6514 15.33326342653963
TIGRISAT                
1 40043U 14033AK  26170.47394176  .00001548  00000+0  18306-3 0  9997
2 40043  97.7834 320.4330 0050515  67.8951 292.7617 14.85169819645964
AEROCUBE 6A             
1 40045U 14033AM  26170.89559735  .00003897  00000+0  32904-3 0  9998
2 40045  97.7254 337.8158 0038655   8.8379 351.3515 14.98130756647022
AEROCUBE 6B             
1 40046U 14033AN  26170.89529139  .00004017  00000+0  32657-3 0  9994
2 40046  97.7250 337.6116 0038114   0.0090   0.1127 14.99591211647166
CANX-4                  
1 40055U 14034C   26170.65126090  .00000657  00000+0  91608-4 0  9996
2 40055  98.3119  46.0548 0012983   9.3368 350.8082 14.81268280644893
CANX-5                  
1 40056U 14034D   26170.64966540  .00000668  00000+0  92982-4 0  9996
2 40056  98.3120  46.0968 0012982   9.5671 350.5785 14.81285583635702
UKUBE-1                 
1 40074U 14037F   26170.94486741  .00007166  00000+0  40346-3 0  9998
2 40074  98.4240 174.5065 0002807 127.2512 232.8973 15.13591351648971
BRITE-PL2 (HEWELIUSZ)   
1 40119U 14049B   26170.78336760  .00001691  00000+0  16138-3 0  9997
2 40119  97.9101 282.8033 0015371 100.7431 259.5521 14.94601604641839
AEROCUBE 5C             
1 40965U 15058B   26170.65177111  .00001588  00000+0  14973-3 0  9996
2 40965  64.7663 254.9231 0130858  62.3153 299.1166 14.91462068366021
AEROCUBE 7              
1 40966U 15058C   26170.64106406  .00002303  00000+0  19243-3 0  9996
2 40966  64.7613 237.1299 0120596  60.7193 300.5911 14.95736995366323
FOX-1A (AO-85)          
1 40967U 15058D   26170.76723961  .00001694  00000+0  16076-3 0  9994
2 40967  64.7745 270.9655 0130569  55.6095 305.7282 14.90978964113952
SINOD-D 1               
1 40968U 15058E   26170.61872214  .00002377  00000+0  19778-3 0  9996
2 40968  64.7746 251.2983 0119206  52.1144 309.0679 14.95917524117021
SNAP-3 ALICE            
1 40970U 15058G   26170.92974050  .00116490  00000+0  13554-2 0  9991
2 40970  64.7495  94.4475 0027452  11.0857 349.0888 15.60645805117315
LMRST-SAT               
1 40971U 15058H   26170.72320106  .00001529  00000+0  14753-3 0  9996
2 40971  64.7751 267.4452 0132198  57.6406 303.7422 14.90598216113938
SNAP-3 EDDIE            
1 40972U 15058J   26170.46933226  .00122718  00000+0  13634-2 0  9991
2 40972  64.7421  86.7482 0027230  15.2972 344.8991 15.61823790119385
PROPCUBE 3              
1 40973U 15058K   26170.61870722  .00001986  00000+0  17311-3 0  9990
2 40973  64.7678 244.9389 0124172  58.9505 302.3728 14.94267364115166
BISONSAT                
1 40974U 15058L   26170.40767934  .00011000  00000+0  53187-3 0  9997
2 40974  64.7582 166.4651 0079286  46.3425 314.4236 15.16233657115956
SNAP-3 JIMI             
1 40975U 15058M   26170.51909891  .00003541  00000+0  24913-3 0  9996
2 40975  64.7632 212.3943 0106301  54.4226 306.6741 15.02313920114574
PROPCUBE 1 (FLORA)      
1 40976U 15058N   26170.68046045  .00001607  00000+0  16026-3 0  9995
2 40976  64.7742 287.5085 0130869  59.9684 301.4335 14.89230682116630
SINOD-D 3               
1 40977U 15058P   26170.71772270  .00002359  00000+0  20631-3 0  9998
2 40977  64.7726 267.9171 0119400  57.1285 304.1252 14.94028280115133
HORYU-4                 
1 41340U 16012D   26170.93679715  .00470481  86038-4  95407-3 0  9996
2 41340  30.9843  58.8005 0006400 289.5711  70.4260 15.98312502571255
RAVAN                   
1 41849U 16067B   26170.68242278  .00043817  00000+0  65510-3 0  9993
2 41849  97.9880  60.5420 0004008  24.2020 335.9420 15.54886369528082
CELTEE 1                
1 41850U 16067C   26170.57749517  .00004334  00000+0  20663-3 0  9992
2 41850  98.0668  37.3072 0001075 128.9694 231.1635 15.19701017526243
OPTICUBE 04             
1 41851U 16067D   26170.66415504  .00001887  00000+0  12127-3 0  9995
2 41851  98.0697  23.0771 0016953 107.9100 252.3977 15.09668393525548
AEROCUBE 8D             
1 41852U 16067E   26170.58428232  .00006185  00000+0  25539-3 0  9996
2 41852  98.0674  40.9374 0004838 117.5198 242.6529 15.24424989526436
AEROCUBE 8C             
1 41853U 16067F   26170.60887759  .00005876  00000+0  24098-3 0  9998
2 41853  98.0546  38.1882 0006503  62.3132 297.8763 15.24674232526434
CORVUS BC2              
1 42846U 17042X   26170.91847136  .00002962  00000+0  20515-3 0  9997
2 42846  97.4077 332.1617 0014570 101.9478 258.3384 15.06313843487477
CORVUS BC1              
1 42847U 17042Y   26170.91277270  .00002521  00000+0  17444-3 0  9992
2 42847  97.4110 332.9722 0013509  81.0513 279.2244 15.06481246487504
MAKERSAT 0              
1 43016U 17073D   26170.66173724  .00013677  00000+0  37211-3 0  9994
2 43016  97.4616  53.1997 0104965 264.0130  94.9141 15.32165805466846
